[
  {
    "name": "ONEWEB-0590",
    "noradId": "54656",
    "line1": "1 54656U 22166Q   26191.08222807  .00000037  00000+0  57221-4 0  9991",
    "line2": "2 54656  87.9227 239.4163 0002407  87.2575 272.8835 13.21826055174558"
  },
  {
    "name": "ONEWEB-0591",
    "noradId": "54657",
    "line1": "1 54657U 22166R   26191.09413529  .00000000  00000+0 -30571-4 0  9996",
    "line2": "2 54657  87.9244 239.4276 0002061  94.3954 265.7415 13.21828046174589"
  },
  {
    "name": "ONEWEB-0592",
    "noradId": "54658",
    "line1": "1 54658U 22166S   26191.09749820  .00000082  00000+0  16815-3 0  9996",
    "line2": "2 54658  87.9277 239.4073 0001792  94.4444 265.6895 13.21822956174468"
  },
  {
    "name": "ONEWEB-0593",
    "noradId": "54659",
    "line1": "1 54659U 22166T   26191.11938050 -.00000026  00000+0 -93301-4 0  9991",
    "line2": "2 54659  87.9239 239.4122 0001919  98.8554 261.2798 13.21825898174577"
  },
  {
    "name": "ONEWEB-0594",
    "noradId": "54660",
    "line1": "1 54660U 22166U   26191.13955639  .00000025  00000+0  28073-4 0  9998",
    "line2": "2 54660  87.9254 239.4248 0002190 101.1222 259.0158 13.21824241174595"
  },
  {
    "name": "ONEWEB-0595",
    "noradId": "54661",
    "line1": "1 54661U 22166V   26191.11602114 -.00000020  00000+0 -79202-4 0  9991",
    "line2": "2 54661  87.9244 239.4117 0002303  98.3028 261.8367 13.21825293174565"
  },
  {
    "name": "ONEWEB-0596",
    "noradId": "54662",
    "line1": "1 54662U 22166W   26191.09076671 -.00000177  00000+0 -45989-3 0  9999",
    "line2": "2 54662  87.9237 239.4270 0002116  97.3402 262.7972 13.21824385174568"
  },
  {
    "name": "ONEWEB-0597",
    "noradId": "54663",
    "line1": "1 54663U 22166X   26191.07226411 -.00000196  00000+0 -50585-3 0  9996",
    "line2": "2 54663  87.9235 239.4331 0001998  94.2225 265.9138 13.21825058174568"
  },
  {
    "name": "ONEWEB-0600",
    "noradId": "54664",
    "line1": "1 54664U 22166Y   26191.12948137 -.00000121  00000+0 -32454-3 0  9992",
    "line2": "2 54664  87.9238 239.4131 0001920 100.9424 259.1926 13.21825968174549"
  },
  {
    "name": "ONEWEB-0601",
    "noradId": "54665",
    "line1": "1 54665U 22166Z   26191.12105758 -.00000008  00000+0 -51578-4 0  9990",
    "line2": "2 54665  87.9233 239.4305 0001812  93.3330 266.8011 13.21825350174735"
  },
  {
    "name": "ONEWEB-0602",
    "noradId": "54666",
    "line1": "1 54666U 22166AA  26191.08656072  .00000020  00000+0  16644-4 0  9993",
    "line2": "2 54666  87.9225 239.4432 0001845 101.3875 258.7466 13.21824284174579"
  },
  {
    "name": "ONEWEB-0603",
    "noradId": "54667",
    "line1": "1 54667U 22166AB  26191.09244824  .00000086  00000+0  17742-3 0  9994",
    "line2": "2 54667  87.9246 239.4017 0001943  96.5075 263.6280 13.21827904174502"
  },
  {
    "name": "ONEWEB-0604",
    "noradId": "54668",
    "line1": "1 54668U 22166AC  26191.08067100  .00000023  00000+0  24931-4 0  9994",
    "line2": "2 54668  87.9249 239.4200 0002065  98.3279 261.8089 13.21824069174463"
  },
  {
    "name": "ONEWEB-0605",
    "noradId": "54669",
    "line1": "1 54669U 22166AD  26191.14964032 -.00000031  00000+0 -10613-3 0  9994",
    "line2": "2 54669  87.9249 239.4180 0001993  78.2615 281.8743 13.21827467174544"
  },
  {
    "name": "ONEWEB-0606",
    "noradId": "54670",
    "line1": "1 54670U 22166AE  26190.41455255 -.00000030  00000+0 -10322-3 0  9993",
    "line2": "2 54670  87.9239 239.5762 0002094 101.1228 259.0142 13.21825000174508"
  },
  {
    "name": "ONEWEB-0607",
    "noradId": "54671",
    "line1": "1 54671U 22166AF  26191.13789103 -.00000006  00000+0 -45397-4 0  9990",
    "line2": "2 54671  87.9243 239.4047 0001903  96.7794 263.3557 13.21825658174578"
  },
  {
    "name": "ONEWEB-0608",
    "noradId": "54672",
    "line1": "1 54672U 22166AG  26191.14458853  .00000013  00000+0 -10819-5 0  9996",
    "line2": "2 54672  87.9245 239.4007 0001858  82.9305 277.2040 13.21823591174587"
  },
  {
    "name": "ONEWEB-0610",
    "noradId": "54673",
    "line1": "1 54673U 22166AH  26191.12443304  .00000041  00000+0  68072-4 0  9993",
    "line2": "2 54673  87.9236 239.4165 0001527  88.2469 271.8840 13.21825714174482"
  },
  {
    "name": "ONEWEB-0611",
    "noradId": "54674",
    "line1": "1 54674U 22166AJ  26191.19337695  .00000041  00000+0  68180-4 0  9996",
    "line2": "2 54674  87.9240 239.3981 0002292 100.1117 260.0276 13.21826982174488"
  },
  {
    "name": "ONEWEB-0612",
    "noradId": "54675",
    "line1": "1 54675U 22166AK  26190.52558744 -.00000352  00000+0 -88362-3 0  9993",
    "line2": "2 54675  87.9240 239.5279 0001999  96.2766 263.8596 13.21826147174387"
  },
  {
    "name": "ONEWEB-0615",
    "noradId": "54676",
    "line1": "1 54676U 22166AL  26191.11095099  .00000021  00000+0  18949-4 0  9995",
    "line2": "2 54676  87.9237 239.4256 0002208 103.4276 256.7104 13.21828071174473"
  },
  {
    "name": "ONEWEB-0655",
    "noradId": "54677",
    "line1": "1 54677U 22166AM  26191.08740258 -.00000201  00000+0 -51930-3 0  9994",
    "line2": "2 54677  87.9233 239.4310 0001844  99.6495 260.4848 13.21824880174465"
  },
  {
    "name": "ONEWEB-0659",
    "noradId": "54678",
    "line1": "1 54678U 22166AN  26191.10422885  .00000019  00000+0  15505-4 0  9995",
    "line2": "2 54678  87.9233 239.4278 0002146  96.5938 263.5440 13.21824003174552"
  },
  {
    "name": "ONEWEB-0685",
    "noradId": "54679",
    "line1": "1 54679U 22166AP  26191.10394793  .00000017  00000+0  10668-4 0  9995",
    "line2": "2 54679  87.9235 239.4186 0001807  86.7242 273.4099 13.21847896174448"
  },
  {
    "name": "ONEWEB-0712",
    "noradId": "54680",
    "line1": "1 54680U 22166AQ  26191.08709083  .00000093  00000+0  20869-3 0  9993",
    "line2": "2 54680  87.9084 224.2263 0001753 106.9555 253.1769 13.16595460175072"
  },
  {
    "name": "ONEWEB-0714",
    "noradId": "54681",
    "line1": "1 54681U 22166AR  26191.10929350  .00000531  00000+0  12547-2 0  9998",
    "line2": "2 54681  87.9225 239.4178 0001792 111.2333 248.8993 13.21823105174568"
  },
  {
    "name": "ONEWEB-0532",
    "noradId": "55140",
    "line1": "1 55140U 23004A   26190.50960998  .00000095  00000+0  21061-3 0  9994",
    "line2": "2 55140  87.9131   1.4226 0002045  82.6899 277.4465 13.17648468170522"
  },
  {
    "name": "ONEWEB-0533",
    "noradId": "55141",
    "line1": "1 55141U 23004B   26190.71866139  .00000318  00000+0  84954-3 0  9998",
    "line2": "2 55141  87.8957 346.1897 0001672  92.0994 268.0326 13.12443009171013"
  },
  {
    "name": "ONEWEB-0541",
    "noradId": "55142",
    "line1": "1 55142U 23004C   26190.76614139 -.00000328  00000+0 -96171-3 0  9992",
    "line2": "2 55142  87.8890  16.5634 0002031  89.8419 270.2942 13.11415165168907"
  },
  {
    "name": "ONEWEB-0543",
    "noradId": "55143",
    "line1": "1 55143U 23004D   26190.62331460  .00000050  00000+0  94039-4 0  9993",
    "line2": "2 55143  87.9181 331.0059 0001787 105.0538 255.0792 13.18686634172657"
  },
  {
    "name": "ONEWEB-0544",
    "noradId": "55144",
    "line1": "1 55144U 23004E   26190.61656907 -.00000003  00000+0 -40377-4 0  9995",
    "line2": "2 55144  87.9177 331.0070 0001982 102.6328 257.5026 13.18687306172657"
  },
  {
    "name": "ONEWEB-0560",
    "noradId": "55145",
    "line1": "1 55145U 23004F   26190.68569488 -.00000049  00000+0 -15622-3 0  9994",
    "line2": "2 55145  87.9182 330.9827 0001976 105.7841 254.3509 13.18684229172673"
  },
  {
    "name": "ONEWEB-0565",
    "noradId": "55146",
    "line1": "1 55146U 23004G   26190.67896425  .00000026  00000+0  32085-4 0  9994",
    "line2": "2 55146  87.9172 331.0099 0002271  96.7804 263.3587 13.18686930172669"
  },
  {
    "name": "ONEWEB-0567",
    "noradId": "55147",
    "line1": "1 55147U 23004H   26190.67221538  .00000076  00000+0  16125-3 0  9993",
    "line2": "2 55147  87.9181 330.9976 0002221 101.1928 258.9454 13.18687154172667"
  },
  {
    "name": "ONEWEB-0569",
    "noradId": "55148",
    "line1": "1 55148U 23004J   26191.31846285  .00000272  00000+0  71113-3 0  9994",
    "line2": "2 55148  87.8987 315.6176 0002468 116.8634 243.2747 13.13470505173212"
  },
  {
    "name": "ONEWEB-0570",
    "noradId": "55149",
    "line1": "1 55149U 23004K   26190.36027736  .00000005  00000+0 -20025-4 0  9993",
    "line2": "2 55149  87.9177 331.0571 0002106  88.4405 271.6969 13.18686351172612"
  },
  {
    "name": "ONEWEB-0571",
    "noradId": "55150",
    "line1": "1 55150U 23004L   26190.35354154  .00000096  00000+0  21129-3 0  9995",
    "line2": "2 55150  87.9175 331.0583 0003098 107.4383 252.7088 13.18685759172627"
  },
  {
    "name": "ONEWEB-0572",
    "noradId": "55151",
    "line1": "1 55151U 23004M   26190.76864088  .00000107  00000+0  24242-3 0  9995",
    "line2": "2 55151  87.9137   1.3725 0002006  92.5116 267.6245 13.17651024170453"
  },
  {
    "name": "ONEWEB-0573",
    "noradId": "55152",
    "line1": "1 55152U 23004N   26190.65028444 -.00000057  00000+0 -17719-3 0  9999",
    "line2": "2 55152  87.9180 331.0011 0002727 100.7847 259.3592 13.18687007172654"
  },
  {
    "name": "ONEWEB-0588",
    "noradId": "55153",
    "line1": "1 55153U 23004P   26190.64355452  .00000066  00000+0  13385-3 0  9994",
    "line2": "2 55153  87.9179 331.0018 0002230  86.8229 273.3158 13.18686933172658"
  },
  {
    "name": "ONEWEB-0598",
    "noradId": "55154",
    "line1": "1 55154U 23004Q   26190.51522306  .00000445  00000+0  12191-2 0  9999",
    "line2": "2 55154  87.8879  16.6221 0002410 102.2282 257.9116 13.11415117168822"
  },
  {
    "name": "ONEWEB-0599",
    "noradId": "55155",
    "line1": "1 55155U 23004R   26190.50200998  .00000028  00000+0  39124-4 0  9993",
    "line2": "2 55155  87.9132   1.4242 0001795  98.5293 261.6042 13.17650444170424"
  },
  {
    "name": "ONEWEB-0614",
    "noradId": "55156",
    "line1": "1 55156U 23004S   26190.96791617  .00000559  00000+0  15412-2 0  9998",
    "line2": "2 55156  87.8875  16.5402 0001835  82.3850 277.7486 13.11416293168825"
  }
]